Name,Address,County,EirCode,Telephone,Fax,email,Heritage Ireland Webpage,it ,"Opening Hours",Admission Charges,Adult,Senior,Group,Child,Student,Family,Facilities,Image URL,Site Type,Region,2015 Visitor Numbers
Adare Castle,Adare,Co. Limerick,V94 HNH0,+353 61 39 66 66,+353 61 39 69 32,adareheritage@eircom.net,www.heritageireland.ie/en/ShannonRegion/AdareCastle/,,"1 Jun - 30 Sep 2016

Average Length of Visit: 1 hour","Adult: EUR 6.00
Child/Student/Senior EUR 5.00
Family: EUR 15.00",6,5,5,5,5,15,"Toilets, toilet for visitors with disabilities available at the Adare Heritage Centre.

Restaurant/Tearooms: Restaurant in the Adare Heritage Centre.",http://www.heritageireland.ie/en/media/061205%20Adare%20Castle%20%20035.jpg,Heritage Site,Shannon,#N/A
Altamont Gardens,Tullow,Co. Carlow,R93 N882,+353 59 915 9444,+353 59 915 9510,altamontgardens@opw.ie,www.heritageireland.ie/en/South-East/AltamontGardens/,,"(Subject to change. Please telephone in advance of visit)
Summer: Open 7 days including bank holidays
Easter - April: 09:00 - 18:30
May - August: 09:00 - 18:30
September:     09:00 - 18:30
October:           09:00 - 17:00

Winter:
Nov & Feb: 09:00 - 16.30
Dec & Jan:   09:00 - 16:00
Closed on Christmas Day

Average length of visit: 1 - 2 hours","Free, except for pre-booked guided tours.

Pre-booked Guided Tour Charges: 
EUR 3.00 

(Charges subject to change when house opens)
",0,0,0,0,0,0,"Picnic tables, toilets, car park

Restaurant/Cafe: Small seasonal coffe shop in Walled Garden.  Open weekends throughout the year & daily for June/July/August.

Altamont Plant Sales: Open daily throughout the year.",http://www.heritageireland.ie/en/media/AltamontGardens.jpg,Heritage Site,South-East,58435
Aras an Uachtarain,Phoenix Park,Dublin 8,D08 E1W3,"+353 1 677 0095
1890 430 430 (Lo Call)",+353 1 672 6454,phoenixparkvisitorcentre@opw.ie,www.heritageireland.ie/en/Dublin/ArasanUachtarain/,www.president.ie & www.araskids.ie,,"Free admission tickets are issued at the Phoenix Park Visitor Centre only on the day, on a first-come, first-served basis. Group visits and/or advance bookings are not permitted.",,,,,,,Restaurant / Tearooms: Restaurant in the grounds of the Phoenix Park Visitor Centre.,http://www.heritageireland.ie/en/media/ArasanUachtarain.jpg,Heritage Site,Dublin,4343
Arbour Hill Cemetery,Arbour Hill,Dublin 7,,+353 1 821 3021,,superintendent.park@opw.ie,www.heritageireland.ie/en/Dublin/ArbourHillCemetery/,,"All year round:
Mon-Fri: 08:00 - 16:00
Sat:           11:00 - 16:00
Sun:          09:30 - 16:00

Avg. Length of Visit: 30 - 45 minutes",Free,0,0,0,0,0,0,Restaurant/Tearooms: None,http://www.heritageireland.ie/en/media/071024%20Arbour%20Hill%20013.jpg,Heritage Site,Dublin,#N/A
Ardfert Cathedral,Ardfert,Co. Kerry,V92 KR7P,+353 66 713 4711,+353 66 713 4711,ardfertcathedral@opw.ie,www.heritageireland.ie/en/ShannonRegion/ArdfertCathedral/,,"28 April (open at 12:00) -  
28 September 2016 (closed at 14:00): Daily 10:00 - 18:00 
 
Average length of visit: 1 hour
Last admission 45 minutes before closing.","Adult: EUR 5.00

Sen/Group: EUR 4.00

Child/Student: EUR 3.00

Family: EUR 13.00
",5,4,4,3,3,13,,http://www.heritageireland.ie/en/media/ArdfertaCathedral.jpg,Heritage Site,Shannon,7802
Athenry Castle,Athenry,Co. Galway,H65 WP93,+353 91 84 47 97,+353 91 84 57 96,athenrycastle@opw.ie,www.heritageireland.ie/en/West/AthenryCastle/,,"24 Mar - 1 Oct 2016: 
Daily 09:30 - 18:00
02 Oct - 26 Oct : 
Monday-Thursday only 09:30 - 17:00

Last admission 45 mins before closing.

Average Length of Visit: 1 Hour","Adult: EUR 5.00
Sen/Group: EUR 4.00
Child/Student: EUR 3.00
Family: EUR 13.00",5,4,4,3,3,13,"Exhibition, public car/coach parking available close to site, toilets

Restaurant/Tearooms: None",http://www.heritageireland.ie/en/media/AthenryCastle.jpg,Heritage Site,West,10848
Aughnanure Castle,Oughterard,Co. Galway,H91 PX20,+353 91 55 22 14,+353 91 55 72 44,aughnanurecastle@opw.ie,www.heritageireland.ie/en/West/AughnanureCastle/,,"16 Mar - 2 Nov 2016: Daily 09:30-18:00
 
Average Length of Visit: 45 minutes","Adult: EUR 5.00
Sen/Group: EUR 4.00
Child/Student: EUR 3.00
Family: EUR 13.00",5,4,4,3,3,13,"Exhibition, toilets, car / coach park

Restaurant/Tearooms: None",http://www.heritageireland.ie/en/media/Aughnanure%20Castle%20RESIZED.png,Heritage Site,West,36929
Ballyhack Castle,Ballyhack,Co. Wexford,Y34 TN56,+353 51 38 94 68,+353 51 38 94 68,jerpointabbey@opw.ie,www.heritageireland.ie/en/South-East/BallyahackCastle/,,"21 May - 31 Aug 2016: 09:30 - 17:00
Saturday - Wednesday inclusive

Last admission 45 mins before closing

Average Length of Visit: 45 minutes",Free,0,0,0,0,0,,"Parking nearby in Village.

Restaurant/Tearooms: None",http://www.heritageireland.ie/en/media/BallyhackCastle.jpg,Heritage Site,South-East,2613
Barryscourt Castle,Carrigtwohill,Co.Cork,T45 Y290,+353 21 488 2218,N/A,barryscourtcastle@opw.ie,www.heritageireland.ie/en/South-West/BarryscourtCastle/,,"Please note that this site is closed to the public until further notice, the OPW regret any inconvenience caused.",Free,0,0,0,0,0,,"Exhibition, toilets, car park.
Please note that the Tearooms are closed at present

Restaurant/Tearooms: Yes
",http://www.heritageireland.ie/en/media/BarryscourtCastle.jpg,Heritage Site,South-West,0
Battle of the Boyne,"Oldbridge, Drogheda",Co. Meath,A92 CY68,+353 41 980 9950,+353 41 984 9873,battleoftheboyne@opw.ie,www.heritageireland.ie/en/midlandseastcoast/BattleoftheBoyne/,www.battleoftheboyne.ie,"Open all year.

Mar-Apr:  	Daily 	09:30-17:30 	 
May-Sep: 	Daily 	10:00-18:00
Oct-Feb:   	Daily 	09:00-17:00 	 

Last admission one hour before closing. 

Grounds: Dogs are welcome but must be on leads at all times.

All groups must be pre-booked.

Site closes Christmas and New Year

Average Length of Visit: 
Visitor Centre - 1 hour. 
Self Guiding Walks - 1 hour","Adult: EUR 5.00
Sen/Group: EUR 4.00
Child/Student: EUR 3.00
Family: EUR 13.00
Free admission to the grounds (battlesite walkways).",5,4,4,3,3,13,"Exhibitions, audio-visual presentation (English, Irish, French, German, Italian and Spanish), display of original and replica 17th Century weaponry, laser battlefield model,  walled garden, car and coach parking. 

The garden and Tea Pavillion can be accessed separately to the Visitor Centre, free of charge.  

Centre is accessible to visitors with disabilities - including the Pavillion Tea Room and toilet facilities.

Restaurant/Tearooms: The Tearoom Pavilion.  Capacity 100. ",http://www.heritageireland.ie/en/media/BattleoftheBoyne.jpg,Heritage Site,Midlands & East Coast,58053
Boyle Abbey,Boyle,Co. Roscommon,F52 XE16,+353 71 966 2604,+353 71 966 4817,ceidefields@opw.ie,www.heritageireland.ie/en/West/BoyleAbbey/,,"24 Mar - 21 Sep 2016: 
Daily 10:00 - 18:00

Last admission 45 mins before closing.

Average Length of Visit: 1 Hour.","Adult: EUR 5.00
Sen/Group: EUR 4.00
Child/Student: EUR 3.00
Family: EUR 13.00",5,4,4,3,3,13,"Exhibitions, toilets, public car / coach park available close to the site.

Restaurant/Tearooms: None",http://www.heritageireland.ie/en/media/BoyleAbbey.jpg,Heritage Site,West,6919
Bru na Boinne Visitor Centre Newgrange and Knowth,Donore,Co. Meath,A92 EH5C,+353 41 988 0300,+353 41 982 3071,brunaboinne@opw.ie,www.heritageireland.ie/en/brunaboinnevisitorcentre/,,"Newgrange is open all year round except for 24, 25, 26 and 27 Dec.
Knowth is open from 25 Mar to 2 Nov.

Last admission to the Visitor Centre is 45 minutes before closing.

Average Length of Visit:
A Exhibition: 1 hour.
B Exhibition and Newgrange: 2 hours.
C Exhibition and Knowth: 2 hours.
D Exhibition and Newgrange and Knowth: 3 hours.","A Adult: EUR 4.00
Sen/Group: EUR 3.00
Child/Student: EUR 3.00
Family: EUR 10.00

B Adult: EUR 7.00
Sen/Group: EUR 6.00
Child/Student EUR 4.00
Family: EUR 16.00

C Adult: EUR 6.00
Sen/Group: EUR 4.00
Child/Student: EUR 4.00
Family: EUR 14.00

D Adult: EUR 12.00
Sen/Group: EUR 9.00
Child/Student: EUR 7.00
Family: EUR 30.00

Debit and Credit Cards accepted.",12,9,9,7,7,30,"Car / Bus park, minibus shuttle service to Newgrange and Knowth, viewing areas. Centre fully accessible to visitors with disabilities - including toilet facilities. Tourist information point. Picnic area.

Restaurant/Tearooms: Tearooms seating capacity 110.",http://www.heritageireland.ie/en/media/BrnaBoinne.jpg,Heritage Site,Midlands & East Coast,263887
Cahir Castle,"Castle St., Cahir",Co. Tipperary,E21 P652,+353 52 744 1011,+353 52 744 2324,cahircastle@opw.ie,www.heritageireland.ie/en/South-East/CahirCastle/,,"Open all year round:

Mid Oct - Feb: Daily 09:30-16:30
Mar - Mid Jun: Daily 09:30-17:30
Mid Jun - Aug: Daily 09:00-18:30
Sep - Mid Oct: Daily 09:30-17:30

Closed at Christmas from the 24 to the 30 December inclusive.

Average Length of Visit: 1 - 1.5 hours","Adult: EUR 5.00
Sen/Group: EUR 4.00
Child/Student: EUR 3.00
Family: EUR 13.00
Please note there are no credit and debit card facilities at this site.",5,4,4,3,3,13,"Exhibition, Toilets, Public Car/Coach park close to site.

Restaurants/Tearooms: None",http://www.heritageireland.ie/en/media/CahirCastle.jpg,Heritage Site,South-East,68532
Carrowmore Megalithic Cemetery,Carrowmore,Co. Sligo,,+353 71 916 1534,+353 71 915 4743,carrowmoretomb@opw.ie,www.heritageireland.ie/en/North-West/CarrowmoreMegalithicCemetery/,,"24 Mar - 12 Oct 2016
Daily 10:00 - 18:00

Last admission at 17:00.

Average length of visit: 1.5 hours","Adult: EUR 5.00
Sen/Group: EUR 4.00
Child/Student: EUR 3.00
Family: EUR 13.00",5,4,4,3,3,13,"Exhibition, A.V. , toilets, carpark, tearoom - all accessible to people with disabilities.

Tearooms: None",http://www.heritageireland.ie/en/media/CarrowmoreMegalithicCemetery.jpg,Heritage Site,North-West,37566
Casino Marino,"Casino Park, Malahide Road",Dublin 3,D03 HH70,+353 1 833 1618,+353 1 833 2636,casinomarino@opw.ie,www.heritageireland.ie/en/Dublin/CasinoMarino/,www.facebook.com/casinomarinodublin,"Open 16 Mar - 31 Oct 2016

10:00 - 17:00 Mar - May & Oct incl.
10:00 - 18:00 Jun - Sep incl.

Last admission 45 mins before closing

Public tours on the hour from 10:00, 11:00, etc.
Private bookings on the half hour.","Adult: EUR 7.00 
Sen/Group: EUR 5.00 
Child/Student: EUR 3.00 
Family: EUR 12.00 
OPW, English and Friends of Manx Heritage Cards + Dublin Pass accepted. 

Free admission for Primary or Second Level pupils, as well as pupils attending special needs schools or special needs classes. For terms and conditions see our Home page under Free Educational Visits for Schools Scheme.",7,5,5,3,3,12,"Toilets and car/coach park.
(Free parking)",http://www.heritageireland.ie/en/media/CasinoMarino.jpg,Heritage Site,Dublin,18141
Castletown House and Parklands,Celbridge,Co. Kildare,W23 V9H3,+353 1 628 8252,+353 1 627 1811,castletown@opw.ie,www.heritageireland.ie/en/midlandseastcoast/Castletown/,www.castletown.ie,"Open 12 Mar - 31 Oct daily, 10:00-18:00 with Berkeley Collection of 18th century Costumes.

Last admission for tours: 17:00

Public Tours - Monday to Saturday at 10:15, 11:00, 12:00, 13:00, 14:00, 15:00, 16:00 and 17:00 and Sunday at 10.15, 11:00 and 17:00. 
Self Guide option on Sunday between 12:00 and 17:00 , download the FREE audio guide at www.castletown.ie .

Castletown can close at very short notice for Government business. Tours may have limited access if an event or private function is running in the house. 

Average length of visit: 1 hour.

Parklands - open daily, free admission. 

Batty Langley Gate - 
Pedestrian Access 06:30 - 19:00
Celbridge Avenue Gate - Pedestrian Access 06:45 - 19.15
M4 Gate - 
Vehicle Access 07.00 - 19:30","Adult: EUR 10.00 -Guided
              EUR 8.00 -Self-Guided 
Senior Citizen/Group: 
                 EUR 8.00 -Guided
                 EUR 5.00 -Self-Guided 
Students/Children: 
                 EUR 5.00 -Guided
                 EUR 3.50 -Self-Guided 
Family: EUR 25.00 -Guided
                EUR 15.00 -Self-Guided 
",10,8,8,5,5,15,"Toilets, toilet for visitors with disabilities, car parking, locker room for large bags.

There is presently no wheelchair access to museum rooms at Castletown House.

The Courtyard Cafe - Open daily to the 31st of October 10am - 5pm, email castletown@thecaterers.ie , Tel: 01 6279498",http://www.heritageireland.ie/en/media/Castletown.jpg,Heritage Site,Midlands & East Coast,297691
Ceide Fields,Ballycastle,Co. Mayo,F26 PF66,+353 96 43 325,+353 96 43 261,ceidefields@opw.ie,www.heritageireland.ie/en/West/CeideFields/,,"24 Mar - End May 2016: 
Daily 10:00- 17:00
June - End Sep 2016 : 
Daily 10:00 - 18:00
1 Oct - 2 Nov 2016 : 
Daily 10:00 - 17:00
Last tour 1 hour before closing.

Winter months - available for group bookings.

Average length of visit: 2 hours","Adult: EUR 5.00
Sen/Group: EUR 4.00
Child/Student: EUR 3.00
Family: EUR 13.00",5,4,4,3,3,13,"Parking, access to A.V. and ground floor exhibits, toilets for people with disabilities. 

Restaurant/Tearooms: Yes - Seating: 75",http://www.heritageireland.ie/en/media/CideFields.jpg,Heritage Site,West,32821
Charles Fort,"SummerCove, Kinsale",Co. Cork,P17 AY18,+353 021 477 2263,+353 21 477 4347,charlesfort@opw.ie,www.heritageireland.ie/en/South-West/CharlesFort/,,"Open All Year

Nov - Mid Mar:  Daily 10:00 - 17:00
Mid Mar - Oct:               10:00 - 18:00.

Last admission: 1 hour before closing

Average Length of Visit: 1 Hour","Adult: EUR 5.00
Sen/Group: EUR 4.00
Child/Student: EUR 3.00
Family: EUR 13.00",5,4,4,3,3,13,"Exhibition Centre; toilets, toilets for visitors with disabilities.

Charles Fort is a venue for Civil /Humanist Wedding Ceremonies.

Restaurant/Tearooms:  
Mid-March , April & October - Sat & Sun 10:00 - 18:00
May, June, July & September - Daily 10:00 - 18:00
Seating Capacity: 50",http://www.heritageireland.ie/en/media/CharlesFort.jpg,Heritage Site,South-West,86849
Clonmacnoise,"Shannonbridge, Athlone",Co. Offaly,N37 V292,+353 90 967 4195,+353 90 967 4273,clonmacnoise@opw.ie,www.heritageireland.ie/en/midlandseastcoast/Clonmacnoise/,,"Open all Year
Nov - Mid Mar: Daily 10:00 - 17:30.
Mid Mar - May: Daily 10:00 - 18:00.
Jun - Aug:            Daily 09:00 - 18.30.
Sep - Oct:            Daily 10:00 - 18:00.
Closed 25 & 26 Dec.

Last admission 45 mins before closing.

Average Length of Visit: 1.5 hours","Adult: EUR 8.00 
Group/Senior: EUR 6.00 
Child/Student: EUR 4.00 
Family: EUR 20.00 
Credit/Debit Cards are both accepted. 

All groups must be pre-booked.",8,6,6,4,4,20,"Exhibitions, toilets (including toilet for visitors with disabilities), car and coach park.

Restaurant/Tea Rooms: Tea Room - Capacity: 30 - 40.",http://www.heritageireland.ie/en/media/Clonmacnoise.jpg,Heritage Site,Midlands & East Coast,157660
Connemara National Park,Letterfrack,Co. Galway,H91 K2Y1,"+353 95 41 054
+353 95 41 323
+353 95 60 900",+353 95 60 912,Siobhan.Geoghegan@environ.ie,www.heritageireland.ie/en/West/ConnemaraNationalPark/,www.connemaranationalpark.ie,"The Park is open all year round.

Visitor Centre: 
Mar - May    Daily 10:00 - 17:30  
Jun - Aug      Daily 09:30 - 18:30
Sep - Oct      Daily 10:00 - 17:30

Average Length of Visit: 2 - 3 hours.",Free,0,0,0,0,0,0,"Exhibitions, Toilets, disabled toilet, car/coach park. 

Indoor and outdoor picnic areas, self-guiding trails. 

Pathway to summit of Diamond Hill (445m), duration approx 2-3 hours.

Restaurant/Tearooms: Coffee Shop and light lunches.",http://www.heritageireland.ie/en/media/ConnemaraNationalPark.jpg,Heritage Site,West,#N/A
Coole Park,Gort,Co. Galway,H91 MF5Y,+353 91 63 18 04,+353 91 63 16 53,info@coolepark.ie,www.heritageireland.ie/en/West/CoolePark/,www.coolepark.ie,"Park is open all year round.

Barrier closes:    
Winter - 18:00.     Summer - 19:30.

Visitor Centre:
Open Easter-Jun & Sep: 
                     Daily 10:00-17:00
Jul & Aug: Daily 10:00 - 18:00

Last admission to centre 15 minutes before closing.  Last admission to presentations 1 hour before closing.

Average Length of Visit: 1 - 2 hours.",Free,0,0,0,0,0,0,"Car/coach park, toilets, including toilets for visitors with disabilities, self-guiding trails, picnic tables in the garden, multi-media presentations, small selection of relevant books, leaflets and postcards.

Restaurant/Tearooms: Coffee shop, hot lunches and home baking.",http://www.heritageireland.ie/en/media/Coole.jpg,Heritage Site,West,#N/A
Corlea Trackway Visitor Centre,Kenagh,Co. Longford,N39 XT18,+353 43 332 2386,+353 43 332 2442,ctrackwayvisitorcentre@opw.ie,www.heritageireland.ie/en/midlandseastcoast/CorleaTrackwayVisitorCentre/,,"5 May - 28 Sep 2016: Daily 10:00 - 18:00

Last admission 45 mins before closing

Average Length of Visit: 1.5 hours.",Free,0,0,0,0,0,0,"Exhibitions, toilets (including toilet for visitors with disabilities), car and coach park, picnic area.",http://www.heritageireland.ie/en/media/CorleaTrackwayVisitorCentre.jpg,Heritage Site,Midlands & East Coast,5331
Derrynane House,Caherdaniel,Co. Kerry,V22 FX65,+353 66 947 5113,+353 66 947 5432,derrynanehouse@opw.ie,www.heritageireland.ie/en/South-West/DerrynaneHouse/,,"17 Mar to 11 Dec 2016
17 Mar to 1 Apr:  
Wed -Sun & Bank Holidays 10:00-17:00 
2 Apr to 30 Sep:           Daily  10:30-18:00
1 Oct to 1 Nov:  
Wed-Sun & Bank Holidays  10:00-17:00
2 Nov to 11 Dec:
                   (Weekends only) 10:00-16:00

Last Admission 45 mins before closing

Average Length of Visit: 1 hour","Adult: EUR 5.00
Sen/Group: EUR 4.00
Child/Student: EUR 3.00
Family: EUR 13.00",5,4,4,3,3,13,"Exhibitions, toilets, disabled toilet, car/coach park, self-guiding trail.

Restaurant/Tearooms: Coffee shop open from Easter weekend to end of September",http://www.heritageireland.ie/en/media/DerrynaneHouse.jpg,Heritage Site,South-West,26961
Desmond Castle,"Cork St, Kinsale",Co. Cork,P17 TY09,+353 21 477 4855,,desmondcastle@opw.ie,www.heritageireland.ie/en/South-West/DesmondCastle/,,"24 Mar - 14 Sep 2016: Daily 10:00-18:00

Last Admission 45 mins before closing

Average Length of Visit: 45 minutes","Adult: EUR 5.00
Sen/Group: EUR 4.00
Child/Student: EUR 3.00
Family: EUR 13.00",5,4,4,3,3,13,"Self guiding exhibition.

Restaurant/Tearooms: None",http://www.heritageireland.ie/en/media/DesmondCastle.jpg,Heritage Site,South-West,9493
Desmond Hall,"The Square, Newcastle West",Co. Limerick,V42 YD76,+353 69 77 408,,desmondhall@opw.ie,www.heritageireland.ie/en/ShannonRegion/DesmondHall/,,"25 May - 7 Sep 2016: Daily 10:00 - 18:00

Last admission 45 mins before closing.

Average Length of Visit: 1 hour",Free,0,0,0,0,0,0,"Toilets (including toilet for disabled people), exhibition, parking close to site.

Restaurant/Tearooms: None",http://www.heritageireland.ie/en/media/DesmondHall.jpg,Heritage Site,Shannon,11150
Donegal Castle,Donegal Town,Co. Donegal,F94 P996,+353 74 972 2405,+353 74 972 2436,donegalcastle@opw.ie,www.heritageireland.ie/en/North-West/DonegalCastle/,,"Easter - Mid Sep:        Daily 10:00 - 18:00
Mid Sep - Easter: Thu-Mon 09:30-16:30

Last admission: 45 mins before closing

Avg. Length of Visit: 45 mins - 1 hour","Adult: EUR 5.00
Sen/Group: EUR 4.00
Child/Student: EUR 3.00
Family: EUR 13.00",5,4,4,3,3,13,"Exhibitions, public toilets

Restaurants/Tearooms: None",http://www.heritageireland.ie/en/media/donegalcastle.jpg,Heritage Site,North-West,47136
Doneraile Wildlife Park,Doneraile,Co. Cork,P51 TH73,+353 87 251 5965,,,www.heritageireland.ie/en/South-West/DoneraileWildlifePark/,www.heritageireland.ie/en/South-West/DoneraileWildlifePark/,"2016
Summer:
Monday - Friday 08:00 - 20:00
Saturday - Sunday 09:00 - 20:00
Bank Holiday 09:00 - 20:00

Winter:
Monday - Friday 08:00 - 17:00
Saturday - Sunday 09:00 - 17:00
Bank Holidays 09:00 - 17:00

Average Length of Visit: 1 - 2 hours",Free,0,0,0,0,0,0,"Car park, Picnic areas, toilets.

Tearooms: 
Winter    10:00 - 16:00; 
Summer 09.30 - 19:00",http://www.heritageireland.ie/en/media/DoneraileWildlifePark.jpg,Heritage Site,South-West,#N/A
Dromore Wood,"Ruan, Ennis",Co. Clare,,+353 65 682 2711,,,www.heritageireland.ie/en/ShannonRegion/DromoreWood/,,"Open Daily  
Barrier closes:  
Summer 19.30  Winter 18.00
Visitor Centre:  
May: Wed - Sun  10.00 - 17.00
Jun - Aug: Daily  10:00 - 17:00

Average Length of Visit: 1 hour",Free,0,0,0,0,0,0,"Two nature trails, Picnic Tables, Car/Coach Park, Toilets, Partial wheelchair access.

Restaurant/Tearooms: None",http://www.heritageireland.ie/en/media/DromoreWood.jpg,Heritage Site,Shannon,#N/A
Dublin Castle,Dame Street,Dublin 2,D02 V240,+353 1 645 8813,+353 1 679 7831,dublincastle@opw.ie,www.heritageireland.ie/en/Dublin/DublinCastle/,www.dublincastle.ie,"Open all Year Round:
                      Mon - Sat: 09:45 - 16:45
Sun & Bank Holidays: 10:45 - 16:45
Closed: 25, 26 & 27 Dec & 1 Jan.
Last admission at 16.45

Average Length of Visit: 1 hour.

Admission is by guided tour. A self guiding option also available.  Information is available in 13 languages. Advanced booking is required for both Guided and Self-Guided Groups.

Please note that as Dublin Castle is a working Irish Government building, security, access to rooms and opening arrangements may be subject to change at short notice. Apologies for any inconvenience caused.","Guided Tour (1hr 5min) (State Apartments, Medieval Undercroft and Chapel Royal) 
Adult: EUR 10.00
Student/Senior (60+): EUR 8.00
Group: EUR 5.50
Children: EUR 4.00
Family: EUR 24.00

Self-Guide (State Apartments and Exhibitions) 
Adult: EUR 7.00
Student/Senior (60+): EUR 6.00
Group: EUR 5.50
Children: EUR 3.00
Family: EUR 17.00",10,8,5.5,4,8,24,"Tea Rooms, Gift Shop, Toilets, Toilets for Visitors with disabilities.",http://www.heritageireland.ie/en/media/dublincastle1.jpg,Heritage Site,Dublin,231178
Dun Aonghasa,Aran,Co. Galway,H91 YT20,+353 99 61 008,+353 99 61 009,dunaonghasa@opw.ie,www.heritageireland.ie/en/West/DunAonghasa/,,"Open all Year

Jan-Mar, Nov-Dec: 09:30-16:00 Daily
                    Apr-Oct:  09:30-18:00 Daily

Average Length of Visit: 1 - 1.5 Hours","Adult: EUR 5.00 
Sen/Group: EUR 4.00 
Child/Student: EUR 3.00 
Family: EUR 13.00 
Free admission when staying overnight on Inis Mor participating accommodation.",5,4,4,3,3,13,Restaurant/Tearooms: Yes,http://www.heritageireland.ie/en/media/DnAonghasa.jpg,Heritage Site,West,120104
Dungarvan Castle,"Castle Street, Dungarvan",Co. Waterford,X35 DV58,+353 58 48 144,,charlesfort@opw.ie,www.heritageireland.ie/en/South-East/DungarvanCastle/,,"26 May - 28 Sep 2016: Daily 10:00-18:00

Last admission 45 mins before closing.

Average Length of Visit: 45 minutes",Free,0,0,0,0,0,0,"Audio-visual exhibition, toilets and toilet for visitor with disabilities.

Dungarvan Castle is a venue for Civil / Humanist Wedding Ceremonies.

Restaurant/Tearooms: None",http://www.heritageireland.ie/en/media/070912%20Dungarvan%20Cas%20088.jpg,Heritage Site,South-East,17280
Dunmore Cave,Castlecomer Road,Co. Kilkenny,R95 A972,+353 56 776 7726,+353 56 776 7302,dunmorecaves@opw.ie,www.heritageireland.ie/en/South-East/DunmoreCave/,,"2016
Open All Year 
Mar - Mid Jun:      Daily 09:30 - 17:00. 
Last tour 16:00
Mid Jun - 11 Sep: Daily 09:30 - 18:30.  Last tour 17:00
11 Sep - End Oct:  Daily 9.30 - 17.00.  Last tour 16.00
Nov to Mar: Wed - Sun only (incl) 
09.30 - 17.00.  Last tour 15.00

Average Length of Visit: 1 hour

(All visitors must have exited the Cave before dark)","Adult: EUR 5.00
Sen/Group: EUR 4.00
Child/Student: EUR 3.00
Family: EUR 13.00",5,4,4,3,3,13,"Toilets with disabled access, car / coach park.

Tea Room open weekends from June Bank Holiday weekend until the end of June and open daily for July and August.",http://www.heritageireland.ie/en/media/DunmoreCave.jpg,Heritage Site,South-East,43767
Dwyer McAllister Cottage,"Derrynamuck, Knockanarrigan",Co. Wicklow,W91 D273,"+353 404 45 352
+353 404 45 325
(Glendalough Visitor Centre)","+353 404 45 626
(Glendalough Visitor Centre)",george.mcclafferty@opw.ie,www.heritageireland.ie/en/midlandseastcoast/DwyerMcAllisterCottage/,,"Mid June - Mid September: Afternoons only 14:00 - 18:00

Last admission 45 mins before closing.

Ring for access.

Average Length of Visit: 30 mins",Free,0,0,0,0,0,0,"Exhibitions, Toilets",http://www.heritageireland.ie/en/media/DwyerMcAllisterCottage.jpg,Heritage Site,Midlands & East Coast,#N/A
Emo Court,Emo,Co. Laois,R32 C44V,+353 57 862 6573,+353 57 862 6460,emocourt@opw.ie,www.heritageireland.ie/en/midlandseastcoast/EmoCourt/,,"House:
24 Mar-28 Sep 2016: Daily 10.00 - 18.00
Last admission 1 hour before closing.

Gardens:
Jan-Feb & Nov-Dec: 08:30 - 16:30
Mar & Oct:                    08:30 - 17:00
Apr & Sep:                    08:30 - 19:00
May - Aug:                    08:30 - 20:30
Entry to the gardens is FREE.

New:
2.2 km walking loop of the 20 acre man made lake. Includes 2 foot bridges and 1.1km of pathways. Walkers and walking clubs welcome. No dogs are allowed.  Cycling is forbidden.

Average Length of Visit: 1 hour","Adult: EUR 5.00
Sen/Group: EUR 4.00
Child/Student: EUR 3.00
Family: EUR 13.00",5,4,4,3,3,13,"Toilets, car / coach park, tea rooms.",http://www.heritageireland.ie/en/media/EmoCourt.jpg,Heritage Site,Midlands & East Coast,13244
Ennis Friary,"Abbey Street, Ennis",Co. Clare,V95 AN28,+353 65 682 9100,+353 65 684 1020,ennisfriary@opw.ie,www.heritageireland.ie/en/ShannonRegion/EnnisFriary/,,"Open 24 March - 2 November 2016
Easter to End of September - 
Open Daily 10:00 - 18:00
1st October - 2nd November - 
Open Daily 10:00 - 17:00

Last admission 45 mins before closing.
 
Average Length of Visit: 45 minutes","Adult: EUR 5.00
Sen/Group: EUR 4.00
Child/Student: EUR 3.00
Family: EUR 13.00",5,4,4,3,3,13,"Public car/coach park close to the site

Restaurant/Tearooms: None

Access for visitors with disabilities",http://www.heritageireland.ie/en/media/EnnisFriary.jpg,Heritage Site,Shannon,11377
Famine Warhouse,Ballingarry,Co. Tipperary,,+353 87 908 9972,,info@heritageireland.ie,www.heritageireland.ie/en/South-East/FamineWarhouse1848/,,"Open all year on a part time basis.  Please call +353 87 908 9972 for appointment.

Apr-Sep: Wed-Sun 14:30 - 17:30
Oct-Mar: Sat & Sun only 14:00 - 16:00

Average Length of Visit: 40 minutes",Free,0,0,0,0,0,0,"Exhibition, toilets, toilet for visitors with disabilities. Car/coach park

Restaurant/Tearooms: None
",http://www.heritageireland.ie/en/media/Warhouse.jpg,Heritage Site,South-East,#N/A
Farmleigh House and Estate,Phoenix Park,Dublin 15,D15 TD50,"+353 1 815 5900
+353 1 815 5981",+353 1 815 5968,farmleighinfo@opw.ie,www.heritageireland.ie/en/Dublin/FarmleighHouseandEstate/,www.farmleigh.ie,"Open All Year.
Grounds and Boat House Cafe open every day , Gallery closed Mondays
There are guided tours of the house  daily, every hour from 10:15 to 16:15  lasting approximately 45mins.  Each tour is strictly limited to 25 people and tickets are issued on a first-come-first-served basis.  

Please note that, because Farmleigh is a working Government building, the House may close at short notice.  

The Estate is open to the public all year , 7 days a week, 10:00 - 18.00
Last admission through the Front Gate is 17.00

Average Length of Visit: 1 - 3 hours.",Free,0,0,0,0,0,0,"Toilets, Design,Visual Art and Craft Gallery, Limited Car Parking, universal access to House.

Restaurant/Tearooms
Seating Capacity: 60 - 70",http://www.heritageireland.ie/en/media/Farmleigh%20_Front.jpg,Heritage Site,Dublin,410076
Ferns Castle,Ferns,Co. Wexford,Y21 D892,+353 53 936 6411,+353 53 936 6395,jerpointabbey@opw.ie,www.heritageireland.ie/en/South-East/FernsCastle/,,"12 May - 21 Sep 2016: Daily 10:00-17:00

Last admission 45 mins before closing
 
Average Length of Visit:  45 minutes",Free,0,0,0,0,0,0,"Exhibition, toilets, toilets for people with disabilities, car parking",http://www.heritageireland.ie/en/media/FernsCastle.jpg,Heritage Site,South-East,9440
Fota Arboretum and Gardens,"Fota Island, Carrigtwohill",Co. Cork,T45 Y642,+353 21 481 2728,+353 21 481 2728,,www.heritageireland.ie/en/South-West/FotaArboretumandGardens/,,"For vehicles:
April - October:
Mon-Sat: 09:00-18:00
Sun:           09:00-18:00
November - March:
Mon-Fri: 09:00-17:00
Sun:          09:00-17:00

For pedestrians:
Open all year round as times above.

Arboretum:
April - October:
Mon-Sat: 09:00-18:00
November - March:
Mon-Fri:  09:00-17:00

Walled Gardens:
April – September:
Mon – Thu: 09:00 – 16:30
Fri:                  09:00- 15.30
Sat:                 11:00 - 17:00
Sun:                 14:00 - 17:00

Closed Christmas Holidays.

Tours: Available by prior appointment, Mon – Fri only.

Average Length of Visit: 1-2 hours","Free. There is no admission charge to Fota Arboretum & Gardens. Site is state-owned and managed by OPW) It is independent of all other enterprises on the island i.e. Fota House, Fota Wildlife Park, etc.",0,0,0,0,0,0,"Picnic area, public car/coach parking, toilet facilites, gardens accessible to disabled.",http://www.heritageireland.ie/en/media/FotaArboretumandGardens.jpg,Heritage Site,South-West,#N/A
Gallarus Oratory,"Gallarus, Baille na nGall",Co. Kerry,,+353 64 663 2402,,info@heritageireland.ie,www.heritageireland.ie/en/South-West/GallarusOratory/,,"Gallarus Oratory is open all year.

The privately owned visitor centre is open 30 May - 28 Aug, 10:00 to 18:00.

","Access to Gallarus Oratory is FREE, but there is a charge for using the private facilities in the visitor centre - the Heritage Card cannot be used.",0,0,0,0,0,0,"Very limited public parking. 

A privately owned car park and other facilities including toilets are situated next to the Oratory. ",http://www.heritageireland.ie/en/media/071004%20Gallarus%20024.jpg,Heritage Site,South-West,3212
Gallarus Castle,"Gallarus, Baille na nGall",Co. Kerry,,+353 64 663 2402,,info@heritageireland.ie,www.heritageireland.ie/en/South-West/GallarusOratory/,,Access to Gallarus Castle grounds is available all year,Free,0,0,0,0,0,0,"Access to the castle grounds only.

No carparking facilites at castle.",,Heritage Site,South-West,51816
Garden of Remembrance,Parnell Square East,Dublin 1,,+353 1 821 3021,,superintendent.park@opw.ie,www.heritageireland.ie/en/Dublin/GardenofRemembrance/,,"Apr-Sept: Daily 08:30 - 18:00
Oct-Mar:   Daily 09:30 - 16:00

Gardens open Christmas Day 11:00 - 13:00

Average Length of Visit: 1 hour",Free,0,0,0,0,0,0,"Restaurant/Tearooms: None on site, but several close by",http://www.heritageireland.ie/en/media/GardenofRemembrance.jpg,Heritage Site,Dublin,#N/A
Glebe House & Gallery,"Churchill, Letterkenny",Co. Donegal,,+353 74 913 7071,+353 74 913 7816,glebegallery@opw.ie,www.heritageireland.ie/en/North-West/GlebeHouseandGallery/,,"Gallery only: Easter (26 Mar - 3 Apr)
Daily 11:00 - 18:30

Closed from 8 Apr to 30 May

Re-opens 28 May - 1 Oct
June & September: 
Open Sat - Thu 11:00 - 18:30
Closed Fri
July & August:
Open Daily 11:00 - 18:30.

Last Tour 1 hour before closing

Average Length of Visit: 1.5 hours","Adult: EUR 5.00 
Sen/Group: EUR 4.00 
Child/Student: EUR 3.00 
Family: EUR 13.00 

Gallery - Free of charge. ",5,4,4,3,3,13,"Exhibitions, toilets, and car/coach park. 

Videos (in English) relating to Derek Hill and the House are shown in the coffee shop.

Restaurant/Tearooms: Coffee shop (Summer months only) Seating capacity: 50",http://www.heritageireland.ie/en/media/glebehouseandgallery.jpg,Heritage Site,North-West,23085
Glendalough Visitor Centre,Bray,Co. Wicklow,A98 HC80,"+353 404 45 352
+353 404 45 325",+353 404 45 626,george.mcclafferty@opw.ie,www.heritageireland.ie/en/midlandseastcoast/GlendaloughVisitorCentre/,,"Open all Year:
Mid Oct - Mid Mar: Daily 09:30-17:00
Mid Mar - Mid Oct: Daily 09:30-18:00

Visitor Centre will be closed from 23 to 28 December inclusive.

Last admission 45 mins. before closing.

Average Length of Visit: 1 - 1.5 hours.","Adult: EUR 5.00
Sen/Group: EUR 4.00
Child/Student: EUR 3.00
Family: EUR 13.00",5,4,4,3,3,13,"Toilets, disabled toilets, car/coach/bicycle park, self-guiding trail, outdoor picnic tables, extensive lawns

Restaurant/Tearooms: None",http://www.heritageireland.ie/en/media/GlendaloughVisitorCentre.jpg,Heritage Site,Midlands & East Coast,79182
Glenveagh National Park and Glenveagh Castle,"Churchill, Letterkenny",Co. Donegal,,"Group Bookings: 
+353 761 00 25 37

Visitor Services Supervisor: 
+353 761 00 25 36

Visitor Centre:
+353 761 00 25 51
",+353 74 913 7072,glenveaghbookings@ahg.gov.ie,www.heritageireland.ie/en/North-West/GlenveaghNationalPark/,www.glenveaghnationalpark.ie,"Visitor Centre:
Mar to Oct: Daily 09:00 - 18:00 
Last bus to castle 16:45
Last bus from castle 17:45
Closed Good Friday

Nov to Feb: Daily 09:00 - 17:00
Last bus to castle 15:45
Last bus  from castle 16:45
Closed over Christmas.

Castle:
Jan to Dec: Daily 10.00 - 17.00
Closed Good Friday and Christmas week. 

Contact the park for details of availability of castle tours during the winter months.","Castle:
Adult: EUR 7.00 
Group/Senior Citizen: EUR 3.00 Groups of 20+: Bus & Castle Tour EUR 7.00 
Child/Student: EUR 5.00 
Family Rate: EUR 15.00 

Access to the Castle is by shuttle bus (charges apply) from Visitor Centre-otherwise 3.5 km walk 

Shuttle Bus Price: 
Adult - Return: EUR 3.00
             - Single: EUR 2.00
Concession/
Group - Return: EUR 2.00
              - Single: EUR 1.50

Guided Walks or Guided Garden Tours: EUR 5.00 Adult 

Guided Hill Walks: EUR 10.00 

Admission to the Park and Visitor Centre is Free",7,3,3,5,5,15,"Exhibitions, toilets, toilet for visitors with disabilities, car/coach park, self-guiding trails, gardens, shuttle bus service to the castle (EUR 3.00 return)

Restaurant/Tearooms:
Tearoom (Castle) - Open all year round. Reduced opening hours in Winter. Seating capacity: 50

Restaurant (Visitor centre) Open Easter - end September. Seating capacity 90",http://www.heritageireland.ie/en/media/GlenveaghNationalPark.jpg,Heritage Site,North-West,#N/A
Government Buildings,Upper Merrion Street,Dublin 2,D02 FK66,"+353 1 645 8813 
+353 1 619 4116",+353 1 679 7831,,www.heritageireland.ie/en/Dublin/GovernmentBuildings/,www.taoiseach.gov.ie,"Open Saturdays Only: 10:30 - 13:30

Tours starting every hour on the half hour.

Average Length of Visit: 40 minutes

Free tickets can be collected on the day from the National Gallery of Ireland, Merrion Square West, Dublin 2, from 10:00

Location: Beside the Merrion Square West entrance to Leinster House

Please Note:  Government Buildings may close at short notice for Government Business.  Please telephone in advance to avoid disappointment.",Free,0,0,0,0,0,0,None,http://www.heritageireland.ie/en/media/Government%20Buildings%20300dpi.jpg,Heritage Site,Dublin,#N/A
Grangegorman Military Cemetery,Blackhorse Avenue,Dublin 7,D07 PK13,+353 1 821 3021,,superintendent.park@opw.ie,www.heritageireland.ie/en/Dublin/GrangegormanMilitaryCemetery/,,"All year round, daily, 10:00 - 16:00

Average Length of Visit: 30 - 45 minutes",Free,0,0,0,0,0,0,None,http://www.heritageireland.ie/en/media/071024%20Grangegorman%20043.jpg,Heritage Site,Dublin,#N/A
Grianan of Aileach,Carrowreagh,Co. Donegal,,,,,,,,Free,0,0,0,0,0,0,None,,,,107968
Heywood Gardens,Ballinakill,Co. Laois,R32 K4V6,"+353 57 873 3563
+353 87 667 5291",+353 57 873 3563,heywoodgardens@opw.ie,www.heritageireland.ie/en/midlandseastcoast/HeywoodGardens/,,"May to Aug:   08:30 to 21:00

Apr and Sep: 08:30 to 19:00

Oct to Mar:     08:30 to 17:30

Average length of visit: 1 hour",Free,0,0,0,0,0,0,"Car park.

Restaurant/Tearooms: None",http://www.heritageireland.ie/en/media/heywoodgardens.jpg,Heritage Site,Midlands & East Coast,#N/A
Hill of Tara,Navan,Co. Meath,C15 CF1P,"+353 46 902 5903 
(17 May-14 Sep)

+353 41 988 0300 
(15 Sep-End May)",+353 46 902 5903,hilloftara@opw.ie,www.heritageireland.ie/en/midlandseastcoast/HillofTara/,,"2016
Visitor Centre: 17 May  - 14 Sep
Daily 10:00 - 18:00 

All Year Round access to the Hill of Tara

Last admission 1 hour before closing.

Average Length of Visit: 1 hour","Adult: EUR 5.00
Sen/Group: EUR 4.00
Child/Student: EUR 3.00
Family: EUR 13.00",5,4,4,3,3,13,"Public car/coach parking area and toilets close to the site

Restaurant/Tearooms:  Coffee shop close to the site, tel:  +353 46 902 5534
Seating capacity:  60

Grounds - Dogs are welcome but MUST be kept on leads at all times.",http://www.heritageireland.ie/en/media/HillofTara.jpg,Heritage Site,Midlands & East Coast,159686
Ilnacullin (Garinish Island) Cork,"Glengariff, Bantry",Co. Cork,P75 X567,+353 27 63 040,+353 27 63 149,,www.heritageireland.ie/en/South-West/Ilnacullin-GarinishIsland/,,"2016
Open from 24 March - 31 October
Last landing 1 hour before closing, but may be subject to tidal flooding from time to time.

April, May & June:
Daily 10:00 - 17:30

July and August:
Monday - Friday  09:30 - 17:30
Saturday                 09:30 - 18:00
Sundays                  09:30 - 17:30

September - 31 October
Daily                         10:00 - 17:30 

Average Length of Visit: 1-2 hours","Adult: EUR 5.00
Sen/Group: EUR 4.00
Child/Student: EUR 3.00
Family: EUR 13.00

A seperate charge is imposed by boat operators.",5,4,4,3,3,13,"Facilities: Toilets, disabled toilet and self guiding trails.
 
Restaurant/Tearooms: Coffee shop and light snacks. Seating Capacity: 40",http://www.heritageireland.ie/en/media/Ilnacullin.jpg,Heritage Site,South-West,58557
Jerpoint Abbey,Thomastown,Co. Kilkenny,R95 P523,"+353 56 772 4623
",+353 56 775 4003,jerpointabbey@opw.ie,www.heritageireland.ie/en/South-East/JerpointAbbey/,,"Early Mar - Sep: Daily 09:00 - 17:30
Oct: Daily 09:00 - 17:00
Nov - Start Dec: Daily 09:30 - 16:00
Dec - Mar:  Pre-booked tours only.

Closed for the Christmas period.

Average Length of Visit:  1 hour
","Adult: EUR 5.00
Sen/Group: EUR 4.00
Child/Student: EUR 3.00
Family: EUR 13.00",5,4,4,3,3,13,"Exhibition, toilets, including disabled toilets, car / coach park

Restaurants/Tearooms: None",http://www.heritageireland.ie/en/media/JerpointAbbey.jpg,Heritage Site,South-East,23442
Kilkenny Castle,"The Parade, Kilkenny City",Co. Kilkenny,R95 YKR1,"+353 56 770 4100
+353 87 634 9153 (Park and Garden)
+353 56 770 4108 (Events)
+353 56 770 4106 (Group Bookings)
+353 86 819 1251 (Castle and Park Foreperson)",,,www.heritageireland.ie/en/South-East/KilkennyCastle/,www.kilkennycastle.ie,"Oct - Feb:      Daily  09:30 - 16:30
Mar:                Daily  09:30 - 17:00
Apr - May:    Daily  09:30 - 17:30
Jun - Aug:     Daily  09:00 - 17:30
Sep:                Daily  09:30 - 17:30

Last admission 30 minutes before closing
","Adult: EUR 8.00 
Senior/Group (20+): EUR 6.00 
Student/Child (over 6): EUR 4.00 
Family: EUR 20+S94.00 ",8,6,6,4,4,20,"Exhibitions, Toilets, Playground in the Park, Gardens, Conference Centre, Public car park near site. Toilet for visitors with disabilities available on request.

Audio guide: English

Guiding leaflet in Braille available on request.

Restaurants/Tearroms: Tea Rooms: Situated in the Castle's Victorian Kitchen with its original cooking range and rows of copper pots.",http://www.heritageireland.ie/en/media/KilkennyCastle.jpg,Heritage Site,South-East,282588
Killarney National Park,"Muckross House, Killarney",Co. Kerry,,"+353 64 663 1440,
+353 64 663 1947",+353 64 663 3926,KillarneyNP@environ.ie,www.heritageireland.ie/en/South-West/KillarneyNationalPark/,www.killarneynationalpark.ie/,"Visitor Centre:
Oct - Mid Mar: On request.
Mid Mar - Sept: Daily 09:00 -17:30

Information Point at the Gate Lodge, Killarney House:
June - Mid Sep: Daily 09:30 - 17:30",Free,0,0,0,0,0,0,"Exhibition, toilets, disabled toilet, gardens, craft shop, car/coach parks. Universal access to Muckross House.

Restaurant/Tearooms: Muckross House: (coffee shop and  full restaurant with wine license, seating 170).
For opening times see Muckross Hou",http://www.heritageireland.ie/en/media/KillarneyNationalPark.jpg,Heritage Site,South-West,#N/A
Kilmacurragh Arboretum,Kilbride,Co. Wicklow,A67 YR12,"+353 404 48 844,
+353 1 857 0909",,botanicgardens@opw.ie,www.heritageireland.ie/en/midlandseastcoast/Kilmacurragh/,www.botanicgardens.ie,,Free,0,0,0,0,0,0,"Car park / public toilets

Restaurants/Tearooms: None",http://www.heritageireland.ie/en/media/Kilmacurragh.jpg,Heritage Site,Midlands & East Coast,67083
Kilmainham Gaol,"Inchicore Road, Kilmainham",Dublin 8,D08 T2X5,+353 1 453 5984,+353 1 453 2037,kilmainhamgaol@opw.ie,www.heritageireland.ie/en/Dublin/KilmainhamGaol/,,"Please follow the link to book tickets:
www.kilmainhamgaolmuseum.ie

Please note Free Wednesday does not apply to Kilmainham Gaol.

Open all year except 24, 25 and 26 December

Januray - December -  09:30 - 18:00 - Last Tour 16:15

Average Length of Visit: 60 mins","Online prices:
Adult: EUR 8.00
Senior: EUR 6.00
Child/Student: EUR 4.00
Family: EUR 20.00

Walk-in prices:
Adult: EUR 9.00
Senior: EUR 7.00
Child/Student: EUR 5.00
Family: EUR 23.00
Please note that these tickets are very limited and it is advisable to book your tickets in advance. 

Credit/Debit cards are both accepted.",9,7,9,5,5,23,"Toilets, Disabled Toilets, Baby changing, Exhibition Area

Restaurant/Tearooms: Yes - Tearoom",http://www.heritageireland.ie/en/media/east%20wing%20RESIZED.png,Heritage Site,Dublin,326635
Listowel Castle,"The Square, Listowel",Co. Kerry,,+353 86 385 7201,,info@heritageireland.ie,www.heritageireland.ie/en/ShannonRegion/ListowelCastle/,,"23 May - 6 September 2016

Monday - Sunday 09:30 - 17:30

Last admission 45 minutes before closing

Average length of visit: 1 hour",Free,0,0,0,0,0,0,"Toilets and car/coach park close to site.  Toilet for visitors with disabilities in the adjacent Kerry Literary & Cultural Centre.

 Restaurant Monday - Friday in the Kerry Literary & Cultural Centre.",http://www.heritageireland.ie/en/media/ListowelCastle.jpg,Heritage Site,Shannon,8110
Loughcrew,"Corstown, Oldcastle",Co. Meath,,+ 353 49 854 1240  (May - August),+353 41 982 3071,,www.heritageireland.ie/en/midlandseastcoast/Loughcrew/,,"30 May - 28 Aug: Daily, 10:00 - 18:00

Last admission to Cairn T 45 minutes before closing

Average Length of Visit: 1 hour",Free,0,0,0,0,0,0,"Public car/coach parking area.  Please note the approach road is very narrow and extreme caution is needed.  There are no toilet facilities

Restaurant/Tearooms: None",http://www.heritageireland.ie/en/media/Loughcrew.jpg,Heritage Site,Midlands & East Coast,14416
Lusk Heritage Centre,Lusk,Co. Dublin,K95 HF70,"+353 1 833 1618 /
+353 1 843 7285",,casinomarino@opw.ie,www.heritageireland.ie/en/midlandseastcoast/LuskHeritageCentre/,,"Ring for opening hours

Average Length of Visit: 1 hour",Free,0,0,0,0,0,0,"Exhibition

Restaurant/Tearooms: None",http://www.heritageireland.ie/en/media/LuskHeritageCentre.jpg,Heritage Site,Midlands & East Coast,#N/A
Maynooth Castle,Maynooth,Co. Kildare,W23 F2D5,+ 353 1 628 6744,+ 353 1 628 6848,maynoothcastle@opw.ie,www.heritageireland.ie/en/midlandseastcoast/MaynoothCastle/,,"19 May - 28 September 2016

Open Wednesday - Sunday and Bank Holidays - 10:00 - 18:00

Average Length of Visit: 45 minutes

Last guided tour 16:30.  Grounds close 17:45.

Please note: Castle closes for the winter at 16:00 on 28 September. ",Free,0,0,0,0,0,0,"Exhibition

Restaurant/Tearooms: None",http://www.heritageireland.ie/en/media/060627%20Maynooth%20Castle%20005.jpg,Heritage Site,Midlands & East Coast,21843
Muckross House and Gardens,"Muckross Estate, Killarney National Park, Muckross, Killarney",Co. Kerry,,+353 64 667 0144,+353 64 667 0116,,www.heritageireland.ie/en/South-West/MuckrossHouseandGardens/,www.muckross-house.ie,"Jul & Aug: Daily 09:00 - 19:00
Sep- Jun:  Daily  09:00 - 17.30

Gardens open:  Daily 08.00 - 18.00
Jul & Aug:            Daily 08.00 - 20.00

NOTE: Automatic Gates to Muckross House and Gardens close 45 minutes after the closing times.

Admission by guided tour only.  Please note last admission 60 mins before closing. All groups of 10 people or more must be pre-booked

Closed for one week at Christmas

Information office at Muckross House is open throughout the year. Information office at The Gate Lodge, Killarney House is open daily from Jun to mid Sep: 9:00 - 18:30","Muckross House & Gardens
Adult: EUR 9.00 
Group/Sen/Student: EUR 7.50
Child 3-5: Free
Child 6-18: EUR 6.00 
Family 
2 Adults + 2 Children: EUR 28.00 
2 Adults + 3 Children: EUR 32.00 

Joint Ticket for House, Gardens and Traditional Farms - 
Adult: EUR 15.00 
Group/Sen/Student: EUR 13.00 
Child 3-5: EUR 6.00
Child 6-18: EUR 10.50 
Family
2 Adults+2 Children: EUR 40.00 
2 Adults+3 Children: EUR 45.00 

PLEASE NOTE THAT THE HERITAGE CARD IS NOT ACCEPTED AT MUCKROSS TRADITIONAL FARMS",9,7.5,7.5,6,7.5,28,"Exhibitions, toilets, disabled toilet, gardens, craft shop, self-guiding trails, including a special trail for the visually impaired. Car/coach parks. Universal access including elevator.

Restaurant/Tearooms: Coffee Shop and restaurant with wine licence.    
Seating Capacity: 170. 
Tel: 064 66 39354",http://www.heritageireland.ie/en/media/MuckrossHouseandGardens.jpg,Heritage Site,South-West,#N/A
Muckross Traditional Farms,"Muckross Estate, Killarney National Park, Muckross, Killarney, Co. Kerry",Co. Kerry,,"+353 64 667 0165,
+353 64 667 0144",+353 64 667 0118,traditionalfarms@muckross-house.ie,www.heritageireland.ie/en/South-West/MuckrossTraditionalFarms/,http://www.muckross-house.ie/farms/intro.htm,"Apr:              Sat, Sun &
                       Bank Hols 13:00 - 18:00
May:             Daily 13:00 - 18:00
Jun - Aug:   Daily 10:00 - 18:00
Sep & Oct: Sat, Sun &
                       Bank Hols 13:00 - 18:00

Please note last admission is 1 hour before closing

Information office at Muckross House is open throughout the year

PLEASE NOTE - THIS SITE DOES NOT ACCEPT HERITAGE CARDS","Muckross Traditional Farms
Adult: EUR 9.00 
Group/Sen/Student: EUR 7.50
Child 3-18: EUR 6.00  
Family
2 Adults + 2 Children: EUR 28.00 
2 Adults + 3 Children: EUR 32.00 

Joint Ticket for House, Gardens and Traditional Farms - 
Adult: EUR 15.00 
Group/Sen/Student: EUR 13.00 
Child 3-5: EUR 6.00
Child 6-18: EUR 10.50 
Family
2 Adults+2 Children: EUR 40.00 
2 Adults+3 Children: EUR 45.00 

PLEASE NOTE - THIS SITE DOES NOT ACCEPT HERITAGE CARDS ",9,7.5,7.5,6,7.5,32,"Toilets. Toilets for visitors with disabilities. Children's playground. Farm animals petting area. Complimentary coach transport around the site

Restaurant/Tearooms: None",http://www.heritageireland.ie/en/media/MuckrossTraditionalFarms.jpg,Heritage Site,South-West,#N/A
Muckross Friary (Abbey),"Carrigafreaghane, Muckross Estate, Killarney National Park, Killarney, Co. Kerry",Co. Kerry,,+353 64 667 0144,+353 64 667 0116,,http://www.heritageireland.ie/en/south-west/muckrossfriary/,www.muckross-house.ie,"Access all year round, except to areas undergoing conservation works.",Free,0,0,0,0,0,0,"Public car park close to site

Restaurant/Tearooms: None",http://www.heritageireland.ie/en/media/MuckrossFriary.jpg,Heritage Site,South-West,#N/A
National Botanic Gardens,Glasnevin,Dublin 9,D09 YV29,"+353 1 857 0909 (Tour Bookings)
+353 1 804 0300 (Other enquiries)",+353 1 836 0080,botanicscentre@opw.ie,www.heritageireland.ie/en/Dublin/NationalBotanicGardens/,www.botanicgardens.ie,"Every day except Christmas Day.

Summer opening hours: 
March to October: 
Monday - Friday:       09:00 - 17:00 Saturday & Sunday:  10:00 - 18:00

Winter opening hours:
November to February:
Monday - Friday:       09:00 - 16:30 Saturday & Sunday:  10.00 - 16:30

Average Length of Visit: 1.5 hours","Free admission.

Pre-booked Guided Tours - EUR 5.00, except for the free Sunday public tours. School tours are free of charge. Two public tours on weekdays: 11:30 and 15:00
 
Car parking charges:
First 15mins free
First hour EUR 1.00
Two hours EUR 2.00, 
then EUR 2.00 per hour",0,0,0,0,0,0,"Audio visual of the National Botanic Gardens available on request in Irish, English, French, Spanish, Italian and German. Duration approx. 15 mins.

Restaurant / Tearooms: Open daily. Summer 09:00 - 17.00; Winter 10:00 - 16:00",http://www.heritageireland.ie/en/media/NationalBotanicGardens.jpg,Heritage Site,Dublin,553348
Newmills Corn and Flax Mills,"Churchill Road, Letterkenny",Co. Donegal,F92 F205,+353 74 912 5115,+353 74 910 3353,newmills@opw.ie,www.heritageireland.ie/en/North-West/NewmillsCornandFlaxMills/,,"26 May-28 Sep 2016: Daily 10:00 - 18:00

Last Admission 45 mins before closing

Average Length of Visit: 1 hour",Free,0,0,0,0,0,0,"Exhibitions, car park, toilets, disabled toilets.

Restaurant/Tearooms: None",http://www.heritageireland.ie/en/media/NewmillsCornandFlaxMills.jpg,Heritage Site,North-West,4173
Old Mellifont Abbey,"Tullyallen, Drogheda",Co. Louth,A92 K682,"+353 41 982 6459 (28 May - 2 Sept)

+353 41 988 0300 (Outside the above period)","+353 41 982 6053
(28 May - 2 Sept)

+353 41 982 3071
(Outside the above period)",mellifontabbey@opw.ie,www.heritageireland.ie/en/midlandseastcoast/OldMellifontAbbey/,,"26 May - 31 Aug 2016: Daily 10:00-18:00

Last admission 45 mins before closing.

Average Length of Visit: 1 hour","Adult: EUR 5.00 
Sen/Group: EUR 4.00 
Child/Student: EUR 3.00 
Family: EUR 13.00 ",5,4,4,3,3,13,"Visitor Centre, exhibition, toilets, toilet for visitors with disabilities, self-guiding trail, public car / coach park, picnic area.

Restaurant/Tearooms: None",http://www.heritageireland.ie/en/media/OldMellifontAbbey.jpg,Heritage Site,Midlands & East Coast,12493
Ormond Castle,"Castle Park, Carrick-on-Suir",Co. Tipperary,E32 CX59,+353 51 64 07 87,+353 51 64 07 87,ormondcastle@opw.ie,www.heritageireland.ie/en/South-East/OrmondCastle/,,"Please note due to essential refurbishment works, the Castle will be closed to the public during 2016 until further notice.  We apologise for any inconvenience caused.

Average Length of Visit: 1 hour","Adult: EUR 5.00 
Sen/Group: EUR 4.00 
Child/Student: EUR 3.00 
Family: EUR 13.00 ",5,4,4,3,3,13,"Toilets, Public car /coach parking close to the site.

Restaurant/Tearooms: None",http://www.heritageireland.ie/en/media/OrmondCastle.jpg,Heritage Site,South-East,0
Parke's Castle,Fivemile Bourne,Co. Leitrim,F91 FP71,+353 71 916 4149,+353 71 916 4546,parkescastle@opw.ie,www.heritageireland.ie/en/North-West/ParkesCastle/,,"30 Mar - 18 Sep: Daily 10:00 - 18:00

Last admission 45 mins before closing  

Average Length of Visit:  1 Hour

Please note there is restricted access to the upper level while remedial works are ongoing.  Apologies for any inconvenience caused.","Adult: EUR 5.00 
Sen/Group: EUR 4.00 
Child/Student: EUR 3.00 
Family: EUR 13.00 ",5,4,4,3,3,13,"Exhibitions, toilets and toilet for visitors with disabilities, public car / coach park close to the site.",http://www.heritageireland.ie/en/media/ParkesCastle.jpg,Heritage Site,North-West,16620
Pearse Museum - St Enda's Park,"Grange Road, Rathfarnham",Co. Dublin,D16 Y7Y5,+353 1 493 4208,+353 1 493 6120,brian.crowley@opw.ie,www.heritageireland.ie/en/Dublin/PearseMuseum-StEndasPark/,,,Free,0,0,0,0,0,0,"Well presented Nature Study centre, self-guiding trail, toilets, car / coach park.

Restaurant/Tearooms:  Cafe open 7 days a week.
Telephone +353 1 493 9061
Seating capacity: 35 + 16 Outside Courtyard (+23 extra in mid-summer)",http://www.heritageireland.ie/en/media/PearseMuseum.jpg,Heritage Site,Dublin,35418
Peoples Flower Gardens,Phoenix Park,Dublin 8,,+353 1 821 3021,+353 1 820 5584,superintendent.park@opw.ie,www.heritageireland.ie/en/Dublin/PhoenixPark-PeoplesFlowerGardens/,www.phoenixpark.ie,"Jan and Dec:    Mon-Fri 08:00 - 16:00    
                             Sat           10:30 - 16:00
                             Sun          10:00 - 16:00

Feb and Nov:  Mon-Fri 08:00 - 17:00    
                             Sat           10:30 - 17:00
                             Sun          10:00 - 17:00

Mar:                    Mon-Fri 08:00 - 18:00
                              Sat          10:30 - 18:00
                              Sun         10:00 - 18:00

Apr and Sep:    Mon-Fri 08:00 - 20:00
                              Sat           10:30 - 20:00
                              Sun          10:00 - 20:00

May and Aug:  Mon-Fri 08:00 - 21:00
                              Sat           10:30 - 21:00
                              Sun          10:00 - 21:00

Jun and Jul:      Mon-Fri 08:00 - 21:30
                              Sat           10:30 - 21:30
                              Sun          10:00 - 21:30

Oct:                      Mon-Fri 08:00 - 18:30
                               Sat          10:30 - 18:30
                               Sun         10:00 - 18:30

Average Length of Visit:  1 hour",Free,0,0,0,0,0,0,Restaurant/Tearooms:  Yes (close by),http://www.heritageireland.ie/en/media/051205%20Phoenix%20Park%20013.jpg,Heritage Site,Dublin,#N/A
Phoenix Park,Dublin 8,Co. Dublin,,+353 1 821 3021,+353 1 820 5584,superintendent.park@opw.ie,www.heritageireland.ie/en/Dublin/PhoenixPark/,www.phoenixpark.ie,"The Phoenix Park is open 24 hours a day, 7 days a week, all year round.
The Victorian Kitchen Walled Garden, beside the Phoenix Park Visitor Centre, is currently under restoration and is open daily to the public from 10:00 - 17:00.

Average Length of Visit: 3 - 4 hours",Free,0,0,0,0,0,0,"Toilets, car parking

Restaurant/Tearooms:
An Fionn Uisce Restaurant at the Phoenix Park Visitor Centre.
Tea Rooms beside the Zoological Gardens.

Bike Hire - Please click here for further details",http://www.heritageireland.ie/en/media/Phoenix%20Monument.jpg,Heritage Site,Dublin,#N/A
Phoenix Park Visitor Centre - Ashtown Castle,Phoenix Park,Dublin 8,D08 Y304,+353 1 677 0095,+353 1 672 6454,phoenixparkvisitorcentre@opw.ie,www.heritageireland.ie/en/Dublin/PhoenixParkVisitorCentre-AshtownCastle/,www.phoenixpark.ie,"Open all Year

Nov-Apr:    Wed - Sun. 09:30 - 17:30    
May - Oct:              Daily 10:00 - 17:.45

Average Length of Visit: 1 hour. 

Last admission 1 hour before closing

PLEASE NOTE THAT THE VISITOR CENTRE MAY BE CLOSED TO THE PUBLIC AT SHORT NOTICE.   WE ARE SORRY FOR ANY INCONVENIENCE THAT MAY BE CAUSED.

The Victorian Kitchen Walled Garden, beside the Visitor Centre, is under restoration and is open to the public daily from 10:00 - 17:00.",Free,0,0,0,0,0,0,"Audio Visual, Exhibitions, toilets, car/coach park

Restaurant/Tearooms: Coffee Shop and Restaurant",http://www.heritageireland.ie/en/media/PhoenixParkVisitorCentre.jpg,Heritage Site,Dublin,141582
Portumna Castle and Gardens,Portumna,Co. Galway,H53 YK27,+353 90 974 1658,+353 90 974 1889,portumnacastle@opw.ie,www.heritageireland.ie/en/West/PortumnaCastleandGardens/,,"24 Mar - 15 Oct 2016 : 
Daily 09:30-18:00

16 Oct to 31 Oct 2016 : 
Weekends Only 09:30 - 17.00

Group tours available on Wednesday and Thursday by prior booking

Last admission 45 minutes before closing.

Average Length of Visit:  1 hour","Adult: EUR 5.00 
Sen/Group: EUR 4.00 
Child/Student: EUR 3.00 
Family: EUR 13.00 ",5,4,4,3,3,13,"Exhibitions, gardens, public car/coach park close to site

Restaurant/Tearooms: Local 
Restaurant/Tearoom within walking distance",http://www.heritageireland.ie/en/media/060608%20Portumna%20Castle%20177%20RESIZED.png,Heritage Site,West,14237
Rathcroghan - Royal Celtic Site,"Rathcroghan Visitor Centre, Cruachan Ai, Tulsk",Co Roscommon,,+353 71 963 9268,N/A,info@rathcroghan.ie,www.heritageireland.ie/en/West/Rathcroghan/,www.rathcroghan.ie,"All year: Mon - Sat   09:00 - 17:00

May - Oct:  Sunday   12:00 - 16:00
(and by appointment out of season)

Average length of visit:

Exhibition tour:  45 min - 1 hour
Site Visit:              1 hour - 1.5 hours
Combined:           2.5 hours","Exhibition: 
Adult:            EUR 7.00 
Senior:          EUR 6.00 
Student:       EUR 6.00 
Child:             EUR 3.00 
Groups 10+: EUR 4.00 

Site Tour: 
Adult:            EUR 5.00 
Senior:          EUR 4.00 
Student:       EUR 4.00 
Child:             EUR 3.00 
Groups 10+: EUR 4.50 

Combined: 
Adult:             EUR 10.00 
Senior:             EUR 8.00 
Student:          EUR 8.00 
Child:                EUR 6.00 
Groups 10+:    EUR 7.00 

Min charge of EUR 20 for site tours 
Family = 2 Adults, up to 5 children. 

Please note the OPW Heritage Card and Free Wednesdays initiative allow for free admission to the exhibition rooms only.",7,6,6,3,6,20,"Full Cafe Menu and Group Dining Options, NEW Interactive Exhibition Rooms, Disability Access, Toilet Facilities, Baby Changing & Bottle warming, Child friendly, Book & Craft Shop, Maps & Equipment, AV Presentation, Presentation/Meeting Rooms. Exhibition in English. 

Rathcroghan Complex archaeological sites have limited mobility access.

Please note the OPW Heritage Card and Free Wednesdays initiative allow for free admission to the exhibition rooms only.",http://www.heritageireland.ie/en/media/Rathcroghan%20from%20South1.png,Heritage Site,West,#N/A
Rathfarnham Castle,Rathfarnham,Dublin 14,D14 K3T6,+353 1 493 9462,,rathfarnhamcastle@opw.ie,www.heritageireland.ie/en/rathfarnhamcastle/,http://www.rathfarnhamcastle.ie/,"Open All Year
Wednesday to Sunday inclusive
Open Daily 09:30 - 17:30

Last admission - 16:45
","Adult: EUR 8.00
Sen/Group: EUR 6.00
Child/Student: EUR 4.00
Family: EUR 20.00",8,6,6,4,4,20,"Toilets, toilets for visitors with disabilities, passenger lift, car/coach park

A playground managed by South Dublin County Council is in the grounds of the Castle

Stuart and Chambers Tearooms open all year round
Access for visitors with disabilities
Winter opening hours: 
10.30 - 17.00 Monday - Friday. 10.00 - 17.00 Sat & Sun.
Summer opening hours: 
09.30 - 17.00 Daily
Seating capacity: 50
Telephone: + 353 1 493 9461
",http://www.heritageireland.ie/en/media/Rathfarnham%20Castle.png,Heritage Site,Dublin,3737
Reginalds Tower,"Parade Quay, Waterford",Co. Waterford,X91 Y880,+353 51 30 42 20,+353 51 30 42 20,reginaldstower@opw.ie,www.heritageireland.ie/en/South-East/ReginaldsTower/,,"Open all Year
Jan - Early Mar: Wed - Sun 09:30 - 17:00
Late Mar - Mid Dec:   Daily 09:30 - 17:30

Closed for Christmas 24 Dec-6 Jan incl.

Last admissions 30 mins before closing

Average length of visit - 1 hour","Adult: EUR 5.00
Sen/Group: EUR 4.00
Child/Student: EUR 3.00
Family: EUR 13.00",5,4,4,3,3,13,"Exhibition, Audio visual presentation

Restaurant/Tearooms: None",http://www.heritageireland.ie/en/media/ReginaldsTower.jpg,Heritage Site,South-East,30818
"Reginald's Tower - Greyfriars, The French Church","Greyfriars, Waterford",Co. Waterford,,+353 51 30 42 20,+353 51 30 42 20,reginaldstower@opw.ie,www.heritageireland.ie/en/South-East/ReginaldsTower/,,,,0,0,0,0,0,0,,,Heritage Site,South-East,69057
Rock of Cashel,"St. Patrick's, Rock of Cashel, Rock Lane, Cashel",Co. Tipperary,E25 KX44,+353 62 61 437,+353 62 62 988,rockofcashel@opw.ie,www.heritageireland.ie/en/South-East/RockofCashel/,,"Open all Year:
Mid Sep - Mid Oct  Daily  9:00-17:30  Last admission at 16:45

Mid Oct - Mid Mar  Daily  9:00-16:30  Last admission at 15:45

Mid Mar - Early Jun  Daily  9:00-17:30  Last admission at 16:45

Early Jun - Mid Sep  Daily  9:00-19:00  Last admission at 18:15

PLEASE NOTE: Due to on-going conservation works, Cormac's Chapel will be closed periodically during 2016.  In addition, until further notice, access at the Rock of Cashel will be restricted.  Visitors with mobility issues are advised to check with the site prior to travelling.  The OPW apologies for any inconvenience caused.

Closed 24 to 26 December inclusive. 

Please note that all groups must be pre-booked.

Avg. Length of Visit: 1 - 1.5 hours.","Adult: EUR 8.00 
Group/Senior: EUR 6.00 
Child/Student: EUR 4.00 
Family: EUR 20.00",8,6,6,4,4,20,"Public toilets and car/coach park close to site.

Credit Card Facilities available.",http://www.heritageireland.ie/en/media/RockofCashel.jpg,Heritage Site, ,300749
Roscrea Heritage Centre - Roscrea Castle and Damer House,"Castle Street, Roscrea",Co. Tipperary,E53 F652,+353 505 21 850,+353 505 21 904,roscreaheritage@opw.ie,www.heritageireland.ie/en/midlandseastcoast/RoscreaHeritageCentre-RoscreaCastleandDamer/,,"24 Mar-18 Sep 2016: Daily 10:00-18:00

Last admission 45 mins before closing

Average Length of Visit: 1 Hour","Adult: EUR 5.00
Sen/Group: EUR 4.00
Child/Student: EUR 3.00
Family: EUR 13.00",5,4,4,3,3,13,"Exhibitions, toilets. (Public car/coach park close to site)

Restaurant/Tearooms: None",http://www.heritageireland.ie/en/media/070710%20Roscrea%20Castle%20061.jpg,Heritage Site,Midlands & East Coast,25715
Ross Castle,"Ross Road, Killarney",Co. Kerry,V93 V304,+353 64 663 5851,+353 64 663 5852,rosscastle@opw.ie,www.heritageireland.ie/en/South-West/RossCastle/,,"11 Mar - 1 Nov 2016: 09:30 - 17:45 

Average length of visit: 1 hour

Last admission 45 mins before closing

All groups of 10 people or more must be pre-booked","Adult: EUR 5.00
Sen/Group: EUR 4.00
Child/Student: EUR 3.00
Family: EUR 13.00",5,4,4,3,3,13,"Exhibitions. Toilets and car/coach park close to site.

Restaurant/Tearooms: None",http://www.heritageireland.ie/en/media/RossCastle.jpg,Heritage Site,South-West,95785
Royal Hospital Kilmainham,"Military Road, Kilmainham",Dublin 8,D08 FW31,+353 1 612 9900,+353 1 612 9999,info@imma.ie,www.heritageireland.ie/en/Dublin/RoyalHospitalKilmainham/,www.imma.ie,"Jul - Sep:           Tue - Fri: 11:30 - 17:30
                                        Sat: 10:00 - 17.30
Sun and Bank Holidays: 12:00 - 17:30
                                     Mon: Closed

Last Admission 17:15

Pre-booked Heritage Tours, please telephone (01) 612 9900",Free,0,0,0,0,0,0,"Facilities include gardens, bookshop, cafe (itsa@imma), wheelchair access and cloakroom.

Parking EUR 2 for the first 3 hrs, EUR 2/hour thereafter.",http://www.heritageireland.ie/en/media/COURT%20YARD.jpg,Heritage Site,Dublin,#N/A
Scattery Island Centre,"Shanakyle Road, Leadmore West, Kilrush (Ferry)",Co. Clare,,"+353 87 995 8427
Out of season contact number: +353 87 919 9725
",,"scatteryisland@opw.ie or 
padraig.oruairc@opw.ie 
",www.heritageireland.ie/en/ShannonRegion/ScatteryIslandCentre/,,"26 May - 31 Aug 2016: Daily 10:00-18:00 (Recommended visiting times)

Last admission 45 mins before closing

Contact local boat operator for boat departure times

Average Length of Visit: 1 - 2 hours

 For out of season arrangements and school tours please contact Padraig O Ruairc - padraig.oruairc@opw.ie",Free,0,0,0,0,0,0,"Toilets

Restaurant/Tearooms: None",http://www.heritageireland.ie/en/media/ScatteryIslandCentre.jpg,Heritage Site,Shannon,1750
Sceilg Mhichil (Great Skellig Rock [Skellig Michael]),"Boats trips can be made from one of the following:
1. Ballinskelligs Pier, Baile an Sceilg (Ballinskelligs) 
2. The Marina, Portmagee
3. Knightstown Harbour, Valentia Island
4. Bunavalla Pier, Bunavalla, Caherdaniel",Co. Kerry,,"+353 1 647 6620 (National Monuments) 
+353 1 647 6000 (Visitor Services)",,info@heritageireland.ie,www.heritageireland.ie/en/South-West/SkelligMichael/,,"Guide Service Available: 
15 May-2 Oct 2016 - Weather Permitting.

At all other times this site is unmanned and visits are prohibited.

Opening arrangements are variable, depending on weather conditions.

Average Length of Visit: 2.5 hours (excluding boat trip)

PLEASE NOTE: The use of drones on Skellig Michael is not permitted.","Free of Charge

Separate charge imposed by boat operator(s).",0,0,0,0,0,0,"None (Please note that there are no toilets.  Visitors are advised to carry water and to wear protective clothing)

Camping is strictly prohibited.
Restaurant/Tearooms: None

Additional Information:

Please note that access is dependent on tidal/weather conditions. Children must be strictly supervised at all times. This is a particularly vulnerable site and visitors are therefore asked to co-operate with our efforts to protect this monument. No animals are allowed on this site.",http://www.heritageireland.ie/en/media/DSC01350.JPG,Heritage Site,South-West,12560
Sligo Abbey,"Abbey St., Sligo",Co. Sligo,F91 K796,+353 71 914 6406,+353 71 914 9909,sligoabbey@opw.ie,www.heritageireland.ie/en/North-West/SligoAbbey/,,"24 Mar - 12 Oct 2016: Daily 10:00-18:00

Last admission 45 mins before closing

Average length of visit: 1 hour","Adult: EUR 5.00
Sen/Group: EUR 4.00
Child/Student: EUR 3.00
Family: EUR 13.00",5,4,4,3,3,13,"Small exhibition, toilets. 

Public car park close to site

Tearooms: None",http://www.heritageireland.ie/en/media/SligoAbbey.jpg,Heritage Site,North-West,15592
St Audoen's Church,High Street,Dublin 8,D08 W99H,+353 1 677 0088,,staudoenschurch@opw.ie,www.heritageireland.ie/en/Dublin/StAudoensChurch/,,"21 Apr - 26 Oct 2016: Daily 09:30 - 17:30

Last admissions 16:45

Avg. Length of Visit: 45 mins - 1 hour",Free,0,0,0,0,0,0,"Facilities

Exhibition, toilets, toilets for visitors with disabilities.

Restaurant/Tearooms: None",http://www.heritageireland.ie/en/media/StAudoensChurch.jpg,Heritage Site,Dublin,33092
St Marys Abbey Dublin,"Meetinghouse Lane, Mary's Abbey, Off Capel St.",Dublin 7,D07 P5N3,,,info@heritageireland.ie,www.heritageireland.ie/en/Dublin/StMarysAbbeyDublin/,,"CLOSED UNTIL FURTHER NOTICE.

Please email info@heritageireland.ie with any queries.",Free,0,0,0,0,0,0,Exhibition,http://www.heritageireland.ie/en/media/St.MarysAbbey.jpg,Heritage Site,Dublin,0
St Marys Church,"Main St., Gowran",Co. Kilkenny,R95 CV0Y,"+353 56 772 6894 (During open season)
+353 56 772 4623 (During closed season)",,info@heritageireland.ie,www.heritageireland.ie/en/South-East/StMarysChurchGowranCoKilkenny/,,"19 May - 31 Aug 2016: 10:00 - 17:30

Wednesday - Sunday inclusive

Last admission 45 mins before closing.

Average Length of Visit:  45 Minutes",Free,0,0,0,0,0,0,"Exhibition

Restaurant/Tearooms: None",http://www.heritageireland.ie/en/media/StMarysChurch.jpg,Heritage Site,South-East,2634
St Stephens Green,St. Stephen's Green,Dublin 2,,+353 1 475 7816,+353 1 475 5287,info@heritageireland.ie,www.heritageireland.ie/en/Dublin/StStephensGreen/,www.ststephensgreenpark.ie,"Open all year
Gardens Opening Times:
Mon-Sat 07:30, Sun and Holidays 09:30
Gardens Closing Times:
According to daylight hours
Open Christmas Day 10.00-13.00

Average Length of Visit: 1 - 2 hours

(Please phone  +353 1 475 7816
for exact closing times)",Free,0,0,0,0,0,0,"Playground, garden for the visually impaired.

Restaurant/Tearooms: None on site but several close by.",http://www.heritageireland.ie/en/media/StStephensGreen.jpg,Heritage Site,Dublin,#N/A
Swiss Cottage,"Kilcommon, Cahir",Co. Tipperary,E21 DX07,"+353 52 744 1144
",,swisscottage@opw.ie,www.heritageireland.ie/en/South-East/SwissCottage/,,"24 Mar to 1 Nov 2016 
Opening Times Daily - 10:00 - 18:00
Last Admission - 17:15

Admission by guided tour only.

Average Length of Visit: 1 hour","Adult: EUR 5.00
Sen/Group: EUR 4.00
Child/Student: EUR 3.00
Family: EUR 13.00
Please note there are no credit and debit card facilities at this site.",5,4,4,3,3,13,"Toilets (including toilet for people with disabilities) close to site.  

Public car/coach park also close to site.

Restaurant/Tearooms: None",http://www.heritageireland.ie/en/media/SwissCottage.jpg,Heritage Site,South-East,24146
Teach An Phiarsaigh (Patrick Peasrse's Cottage),"An Gort Mor, Inbhear (off R340), near Rosmuc Village (take next left after that for Rosmuc, just after Loch Oiriulach)",Co. Galway,H91 F2N5,+353 91 57 42 92,+353 91 57 48 71,tanphiarsaigh@opw.ie,www.heritageireland.ie/en/West/PatrickPearsesCottage/,,"17 Mar - 31 Dec 2016: Daily 10:00-17:00

Last admission 45 mins before closing.

Average Length of Visit:  45 minutes","Adult: EUR 5.00
Sen/Group: EUR 4.00
Child/Student: EUR 3.00
Family: EUR 13.00",5,4,4,3,3,13,"Toilets (small public car parking area close to the site)

Restaurant/Tearooms: None",http://www.heritageireland.ie/en/media/PatrickPearsesCottage.jpg,Heritage Site,West,8946
Ionad an Bhlascaoid Mhoir (The Blasket Centre),"Dun Chaoin,  Baile an Fheirtearaigh, Tra Li",Co. Chiarrai,V92 TH73,"+353 66 915 6444/
+353 66 915 6371",+353 66 915 6446,blascaod@opw.ie,www.heritageireland.ie/en/blascaod/,http://blasket.ie/en/,"24 Mar - 2 Nov 2016:  Daily 10:00-18:00

Last admission 45 minutes before closing (17:15)

Average Length of Visit:  1.5 hours

Open for bookings in winter","Adult: EUR 5.00
Sen/Group: EUR 4.00
Child/Student: EUR 3.00
Family: EUR 13.00",5,4,4,3,3,13,"Archive Room, Arts Events, Auditorium, Baby Changing Services, Book Shop, Bus Park, Children's Language Room, Cultural Museum, Entertainment, Genealogy, Genealogy Service, Group Lunches Available on Request, Guided Tours, Heritage Museum, Interactive Exhibition, Island Exhibitions, Island Heritage, Literary Centre, Literature, Literature Events, Local Heritage Site, Parking, Public Toilets, Restaurant, Scenic Location, Scenic Vistas, Video Exhibition, Wheel Chair Accessible, Workshops",http://www.heritageireland.ie/en/media/The%20Blasket%20Centre%20Exterior.png,Heritage Site,South-West,48261
The Croppies Acre,Benburb Street,Dublin 7,,+353 1 702 8811,,info@heritageireland.ie,www.heritageireland.ie/en/Dublin/TheCroppiesAcre/,,CLOSED AT PRESENT,Free,0,0,0,0,0,0,None,http://www.heritageireland.ie/en/media/071024%20The%20Croppies%20Acre%20009.jpg,Heritage Site,Dublin,#N/A
The Iveagh Gardens,Clonmel Street,Dublin 2,,+353 1 475 7816,+353 1 475 5287,info@heritageireland.ie,www.heritageireland.ie/en/Dublin/TheIveaghGardens/,www.iveaghgardens.ie,"Open all year:

Gardens Open:
Mon-Sat:                              08:00
Sun and Bank Holidays: 10:00

Gardens Closing times are:
Dec - Jan:         15:30
Feb and Nov: 16:00
Mar - Oct:        18:00

Average Length of Visit: 1 hour",Free,0,0,0,0,0,0,None,http://www.heritageireland.ie/en/media/TheIveaghGardens.jpg,Heritage Site,Dublin,#N/A
The John F Kennedy Arboretum,"Ballysop, New Ross (12 km south of New Ross (off R733))",Co. Wexford,Y34 KA48,+353 51 38 81 71,+353 51 38 81 72,jfkarboretum@opw.ie,www.heritageireland.ie/en/South-East/TheJohnFKennedyArboretum/,https://www.facebook.com/jfkarboretum/,"Open all Year

Oct-Mar:   Daily 10:00 - 17:00
Apr:            Daily 10:00 - 18:30
May-Aug: Daily 10:00 - 20:00
Sep:            Daily 10:00 - 18:30

Daily Guided Tours, Apr to Sep, at 11:00 & 1500. Meet at the flagpoles. 

Guided Tours can also be booked in advance.

Last admission 45 mins before closing.

Average Length of Visit: 1.5 hours","Adult: EUR 5.00
Sen/Group: EUR 4.00
Child/Student: EUR 3.00
Family: EUR 13.00",5,4,4,3,3,13,"Exhibitions, toilets, toilet for disabled (at tearoom), car parks, coach park, picnic site, play area (Under 12's), maze, miniature railway (afternoons in summer), pony & trap service(seasonal), nature trail and signposted walks. 

Tearoom: May-Sep
Tel. 051-38 81 95
Seating Capacity: 50",http://www.heritageireland.ie/en/media/TheJohnFKennedyArboretum.jpg,Heritage Site,South-East,96910
The Main Guard,"1-3 Sarsfield Street, Clonmel",Co. Tipperary,E91 P7Y8,"+353 52 612 7484
+353 62 61 437 (During the closed season)","+353 52 612 7517
+353 62 61 988 (During the closed season)","mainguard@opw.ie
rockofcashel@opw.ie (During the closed season)",www.heritageireland.ie/en/South-East/TheMainGuard/,,"Please note this site may close at short notice.  Visitors are advised to check ahead before visiting.

24 Mar - 28 Mar 2016 & 
14 Apr - 28 Sep 2016: Daily 09:00-17:00
Closed on Mondays

Last admission 16:15
Restricted hours during closed season

Average Length of Visit: 40 mins.",Free,0,0,0,0,0,0,"Exhibitions, toilets, toilet for visitors with disabilities.
Car parking close to the site.
Restaurant/Tearooms: None",http://www.heritageireland.ie/en/media/Mainguard.jpg,Heritage Site,South-East,7951
The Wexford Wildfowl Reserve,"National Parks and Wildlife Service, North Slob, Ardcavan Lane",Co. Wexford,,+353 53 91 23406,+353 53 91 24785,dominic.berridge@environ.ie,www.heritageireland.ie/en/South-East/TheWexfordWildfowlReserve/,www.wexfordwildfowlreserve.ie,"Open all year: Daily 09.00 - 17.00

School groups by arrangement.
Other hours by arrangement with the warden.
Closed for Christmas day.
Reserve may be closed temporarily for management operation. In these circumstances a notice will be placed at the",Free,0,0,0,0,0,0,"Toilets, including disabled toilets, car/coach park, picnic area, warden, bird watching, lectures, conference/exhibition room.

Restaurant/Tearooms: None",http://www.heritageireland.ie/en/media/TheWexfordWildfowlReserve.jpg,Heritage Site,South-East,#N/A
Tintern Abbey,"Saltmills, New Ross",Co. Wexford,Y34 KR64,"+353 51 562650  
+353 56 772 4623 (Winter Telephone)",+353 51 562034,tinternabbey@opw.ie,www.heritageireland.ie/en/tinternabbey/,,"16th May  - 25th September: Daily 10.00 - 17.00
Last admission 45 mins before closing
Average Length of Visit: 1 hour","Adult: EUR 5.00
Sen/Group: EUR 4.00
Child/Student: EUR 3.00
Family: EUR 13.00",5,4,4,3,3,13,"Exhibition, toilets, car park.",http://www.heritageireland.ie/en/media/TinternAbbey.jpg,Heritage Site,South-East,15227
Trim Castle,Trim,Co. Meath,C15 HN90,+353 46 943 8619 or +353 46 9438964,+353 46 943 8618,trimcastle@opw.ie,www.heritageireland.ie/en/midlandseastcoast/TrimCastle/,,"As part of the OPW Communities Initiative Programme, the OPW is pleased to announce that tours of Trim Castle Grounds will be available on weekdays at 11am, organised by Trim Community Historical Tours.  Tours of the Castle are only available at the week","Including the Keep
Adult: EUR 5.00
Sen/Group: EUR 4.00
Child/Student: EUR 3.00
Family: EUR 13.00

Excluding the Keep
Adult: EUR 2.00
Sen/Group: EUR 1.00
Child/Student: EUR 1.00
Family: EUR 4.00",5,4,4,3,3,13,"Display panels with reconstruction drawings, toilets, guided tours. Public car park close to the site.

Please note that this car park is paid parking with a 2 hour limit

Restaurant/Tearooms: None",http://www.heritageireland.ie/en/media/TrimCastle.jpg,Heritage Site,Midlands & East Coast,86972
War Memorial Gardens,Islandbridge,Dublin 8,,+353 1 475 7816 (gardens),+353 1 475 5287,info@heritageireland.ie,www.heritageireland.ie/en/Dublin/WarMemorialGardens/,,"Gardens Open: Mon-Fri 08.00, Sat-Sun 10.00
Gardens Close: According to Daylight hours
Access to Bookrooms: by arrangement with local management

Average Length of Visit:  1-2 hours",Free,0,0,0,0,0,0,"Car park close to site

Restaurant/Tearooms: None",http://www.heritageireland.ie/en/media/War%20Memorial%20Garden%20Thumbnail.png,Heritage Site,Dublin,#N/A
Wicklow Mountains National Park,Glendalough,Co. Wicklow,,"+353-404-45656 (Education Centre)
+353-404-45425 (Information Office)",+353 404 45710,wickloweducationcentre@environ.ie,www.heritageireland.ie/en/midlandseastcoast/WicklowMountainsNationalPark/,www.wicklowmountainsnationalpark.ie,"Opening Arrangements: The Education Centre operates Monday to Friday, throughout the year. Booking is essential.

The Information Office is open seasonally:
May - September: Open Daily 10:00 hrs - 17:30 hrs
October: Weekends only 10:00 hrs  - 17:30hr",Free,0,0,0,0,0,0,"The Information Office has hands-on exhibitions and a staff member to answer questions.
A series of way-marked walking trails guides visitors on routes of 30 minutes to four hours. Some of these are wheelchair friendly. Maps are sold in the Information",http://www.heritageireland.ie/en/media/WicklowMountainsNationalPark.jpg,Heritage Site,Midlands & East Coast,150125
